{
  "type": "FeatureCollection",
  "features": [
    {
      "type": "Feature",
      "geometry": null,
      "properties": {}
    },
    {
      "type": "Feature",
      "geometry": {
        "type": "Polygon",
        "coordinates": [
          [
            [
              110.35959,
              -7.809964
            ],
            [
              110.359581,
              -7.81002
            ],
            [
              110.359679,
              -7.810039
            ],
            [
              110.359686,
              -7.80998
            ],
            [
              110.35959,
              -7.809964
            ]
          ]
        ]
      },
      "properties": {
        "GEDHONG TEMANTEN": "Gedhong_Temanten",
        "height": "6"
      }
    },
    {
      "type": "Feature",
      "geometry": {
        "type": "Polygon",
        "coordinates": [
          [
            [
              110.359617,
              -7.810028
            ],
            [
              110.359613,
              -7.810058
            ],
            [
              110.359639,
              -7.810063
            ],
            [
              110.359646,
              -7.810033
            ],
            [
              110.359617,
              -7.810028
            ]
          ]
        ]
      },
      "properties": {
        "": "",
        "GEDHONG PANGUNJUKAN": "Gedhong_Pangunjukan",
        "height": 6
      }
    },
    {
      "type": "Feature",
      "geometry": {
        "type": "Polygon",
        "coordinates": [
          [
            [
              110.359604,
              -7.810108
            ],
            [
              110.359599,
              -7.81014
            ],
            [
              110.359625,
              -7.810144
            ],
            [
              110.35963,
              -7.810112
            ],
            [
              110.359604,
              -7.810108
            ]
          ]
        ]
      },
      "properties": {
        "GEDHONG PANGUNJUKAN": "Gedhong_Pangunjukan",
        "height": 8
      }
    },
    {
      "type": "Feature",
      "geometry": {
        "type": "Polygon",
        "coordinates": [
          [
            [
              110.359597,
              -7.810139
            ],
            [
              110.359563,
              -7.810134
            ],
            [
              110.359553,
              -7.810193
            ],
            [
              110.359656,
              -7.810207
            ],
            [
              110.359664,
              -7.810152
            ],
            [
              110.359623,
              -7.810144
            ],
            [
              110.35961,
              -7.810142
            ],
            [
              110.359597,
              -7.810139
            ]
          ]
        ]
      },
      "properties": {
        "GEDHONG TEMANTEN": "Gedhong_Temanten",
        "height": 6
      }
    },
    {
      "type": "Feature",
      "geometry": {
        "type": "Polygon",
        "coordinates": [
          [
            [
              110.359413,
              -7.810007
            ],
            [
              110.359401,
              -7.810098
            ],
            [
              110.359501,
              -7.810114
            ],
            [
              110.359516,
              -7.810025
            ],
            [
              110.359413,
              -7.810007
            ]
          ]
        ]
      },
      "properties": {
        "GAPURO PANGGUNG": "Gapuro_Panggung",
        "height": 6
      }
    },
    {
      "type": "Feature",
      "geometry": {
        "type": "Polygon",
        "coordinates": [
          [
            [
              110.359328,
              -7.80994
            ],
            [
              110.359319,
              -7.81
            ],
            [
              110.359386,
              -7.81001
            ],
            [
              110.359397,
              -7.809952
            ],
            [
              110.359328,
              -7.80994
            ]
          ]
        ]
      },
      "properties": {
        "GEDHONG SEKAWAN": "Gedhong_Sekawan1",
        "height": 6
      }
    },
    {
      "type": "Feature",
      "geometry": {
        "type": "Polygon",
        "coordinates": [
          [
            [
              110.359306,
              -7.810079
            ],
            [
              110.359299,
              -7.810139
            ],
            [
              110.359369,
              -7.810147
            ],
            [
              110.359377,
              -7.810088
            ],
            [
              110.359306,
              -7.810079
            ]
          ]
        ]
      },
      "properties": {
        "GEDHONG SEKAWAN": "Gedhong_Sekawan2",
        "height": 6
      }
    },
    {
      "type": "Feature",
      "geometry": {
        "type": "Polygon",
        "coordinates": [
          [
            [
              110.359193,
              -7.809917
            ],
            [
              110.359183,
              -7.809979
            ],
            [
              110.359249,
              -7.809988
            ],
            [
              110.359258,
              -7.809927
            ],
            [
              110.359193,
              -7.809917
            ]
          ]
        ]
      },
      "properties": {
        "GEDHONG SEKAWAN": "Gedhong_Sekawan4",
        "height": 6
      }
    },
    {
      "type": "Feature",
      "geometry": {
        "type": "Polygon",
        "coordinates": [
          [
            [
              110.359233,
              -7.810063
            ],
            [
              110.35917,
              -7.810054
            ],
            [
              110.359158,
              -7.810116
            ],
            [
              110.359227,
              -7.810125
            ],
            [
              110.359233,
              -7.810063
            ]
          ]
        ]
      },
      "properties": {
        "GEDHONG SEKAWAN": "Gedhong_Sekawan3",
        "height": 6
      }
    },
    {
      "type": "Feature",
      "geometry": {
        "type": "Polygon",
        "coordinates": [
          [
            [
              110.359181,
              -7.809993
            ],
            [
              110.359117,
              -7.80998
            ],
            [
              110.359108,
              -7.810034
            ],
            [
              110.359171,
              -7.810047
            ],
            [
              110.359181,
              -7.809993
            ]
          ]
        ]
      },
      "properties": {
        "MASUK UMBUL": "Masuk_Umbul",
        "height": 6
      }
    },
    {
      "type": "Feature",
      "geometry": {
        "type": "Polygon",
        "coordinates": [
          [
            [
              110.358988,
              -7.809628
            ],
            [
              110.358977,
              -7.809693
            ],
            [
              110.359159,
              -7.809731
            ],
            [
              110.359173,
              -7.809668
            ],
            [
              110.358988,
              -7.809628
            ]
          ]
        ]
      },
      "properties": {
        "KOMPLEK BINANGUL": "Komplek_Binangul1",
        "height": 6
      }
    },
    {
      "type": "Feature",
      "geometry": {
        "type": "Polygon",
        "coordinates": [
          [
            [
              110.358986,
              -7.810071
            ],
            [
              110.358977,
              -7.810114
            ],
            [
              110.358905,
              -7.8101
            ],
            [
              110.358894,
              -7.810149
            ],
            [
              110.358963,
              -7.810161
            ],
            [
              110.358959,
              -7.810188
            ],
            [
              110.359005,
              -7.810197
            ],
            [
              110.359011,
              -7.810173
            ],
            [
              110.359072,
              -7.810181
            ],
            [
              110.359078,
              -7.810135
            ],
            [
              110.359015,
              -7.81012
            ],
            [
              110.359024,
              -7.810079
            ],
            [
              110.358986,
              -7.810071
            ]
          ]
        ]
      },
      "properties": {
        "KOMPLEK BINANGUL": "Komplek_Binangul2",
        "height": 6
      }
    },
    {
      "type": "Feature",
      "geometry": {
        "type": "Polygon",
        "coordinates": [
          [
            [
              110.358934,
              -7.809943
            ],
            [
              110.35887,
              -7.809933
            ],
            [
              110.358864,
              -7.809995
            ],
            [
              110.358925,
              -7.810001
            ],
            [
              110.358934,
              -7.809943
            ]
          ]
        ]
      },
      "properties": {
        "PINTU KELUAR": "Pintu_Keluar",
        "height": 6
      }
    },
    {
      "type": "Feature",
      "geometry": {
        "type": "Polygon",
        "coordinates": [
          [
            [
              110.358486,
              -7.80985
            ],
            [
              110.358476,
              -7.809956
            ],
            [
              110.358573,
              -7.809965
            ],
            [
              110.358588,
              -7.809863
            ],
            [
              110.358486,
              -7.80985
            ]
          ]
        ]
      },
      "properties": {
        "GAPURO AGUNG": "Gapuro_Agung",
        "height": 6
      }
    },
    {
      "type": "Feature",
      "geometry": {
        "type": "Polygon",
        "coordinates": [
          [
            [
              110.358997,
              -7.809718
            ],
            [
              110.358972,
              -7.809882
            ],
            [
              110.359093,
              -7.809904
            ],
            [
              110.359124,
              -7.809747
            ],
            [
              110.358997,
              -7.809718
            ]
          ]
        ]
      },
      "properties": {
        "UMBUL MUNCAR": "Umbul_Muncar",
        "height": 0
      }
    },
    {
      "type": "Feature",
      "geometry": {
        "type": "Polygon",
        "coordinates": [
          [
            [
              110.358967,
              -7.809918
            ],
            [
              110.358939,
              -7.81008
            ],
            [
              110.35898,
              -7.81009
            ],
            [
              110.358985,
              -7.810071
            ],
            [
              110.359024,
              -7.81008
            ],
            [
              110.35902,
              -7.810094
            ],
            [
              110.359054,
              -7.810102
            ],
            [
              110.359087,
              -7.809942
            ],
            [
              110.358967,
              -7.809918
            ]
          ]
        ]
      },
      "properties": {
        "UMBUL  BINANGUN": "Umbul_Binangun",
        "height": 0
      }
    },
    {
      "type": "Feature",
      "geometry": {
        "type": "Polygon",
        "coordinates": [
          [
            [
              110.358924,
              -7.810185
            ],
            [
              110.35891,
              -7.810276
            ],
            [
              110.359021,
              -7.810299
            ],
            [
              110.359035,
              -7.810207
            ],
            [
              110.358924,
              -7.810185
            ]
          ]
        ]
      },
      "properties": {
        "UMBUL KURAS": "Umbul_Kuras",
        "height": 0
      }
    },
    {
      "type": "Feature",
      "properties": {
        "GEDHONG LOPO LOPO": "Gedhong_LopoLopo",
        "height": "2"
      },
      "geometry": {
        "type": "Polygon",
        "coordinates": [
          [
            [
              110.35878852888,
              -7.809948232806344
            ],
            [
              110.35878843643118,
              -7.809945318324336
            ],
            [
              110.35878815944959,
              -7.809942415344447
            ],
            [
              110.35878769902831,
              -7.80993953532338
            ],
            [
              110.35878705698447,
              -7.809936689627305
            ],
            [
              110.35878623585188,
              -7.80993388948686
            ],
            [
              110.35878523887119,
              -7.809931145952924
            ],
            [
              110.358784069977,
              -7.80992846985298
            ],
            [
              110.35878273378249,
              -7.809925871748367
            ],
            [
              110.3587812355609,
              -7.809923361892632
            ],
            [
              110.3587795812251,
              -7.809920950191003
            ],
            [
              110.35877777730394,
              -7.809918646161392
            ],
            [
              110.35877583091673,
              -7.809916458896736
            ],
            [
              110.35877374974493,
              -7.809914397029189
            ],
            [
              110.35877154200199,
              -7.809912468695984
            ],
            [
              110.35876921640086,
              -7.809910681507386
            ],
            [
              110.35876678211962,
              -7.809909042516606
            ],
            [
              110.3587642487653,
              -7.8099075581919895
            ],
            [
              110.35876162633585,
              -7.809906234391507
            ],
            [
              110.35875892518081,
              -7.8099050763395885
            ],
            [
              110.3587561559604,
              -7.809904088606525
            ],
            [
              110.35875332960352,
              -7.809903275090457
            ],
            [
              110.35875045726442,
              -7.809902639001976
            ],
            [
              110.35874755027898,
              -7.8099021828514035
            ],
            [
              110.35874462011972,
              -7.809901908438985
            ],
            [
              110.35874167835065,
              -7.8099018168477
            ],
            [
              110.35873873658159,
              -7.809901908438985
            ],
            [
              110.35873580642232,
              -7.8099021828514035
            ],
            [
              110.35873289943689,
              -7.809902639001976
            ],
            [
              110.35873002709779,
              -7.809903275090457
            ],
            [
              110.3587272007409,
              -7.809904088606525
            ],
            [
              110.3587244315205,
              -7.8099050763395885
            ],
            [
              110.35872173036545,
              -7.809906234391507
            ],
            [
              110.358719107936,
              -7.8099075581919895
            ],
            [
              110.35871657458168,
              -7.809909042516606
            ],
            [
              110.35871414030045,
              -7.809910681507386
            ],
            [
              110.35871181469932,
              -7.809912468695984
            ],
            [
              110.35870960695637,
              -7.809914397029189
            ],
            [
              110.3587075257846,
              -7.809916458896736
            ],
            [
              110.35870557939738,
              -7.809918646161392
            ],
            [
              110.35870377547623,
              -7.809920950191003
            ],
            [
              110.3587021211404,
              -7.809923361892632
            ],
            [
              110.35870062291883,
              -7.809925871748367
            ],
            [
              110.35869928672429,
              -7.80992846985298
            ],
            [
              110.35869811783012,
              -7.809931145952924
            ],
            [
              110.35869712084941,
              -7.80993388948686
            ],
            [
              110.35869629971684,
              -7.809936689627305
            ],
            [
              110.358695657673,
              -7.80993953532338
            ],
            [
              110.35869519725172,
              -7.809942415344447
            ],
            [
              110.35869492027012,
              -7.809945318324336
            ],
            [
              110.35869482782132,
              -7.809948232806344
            ],
            [
              110.35869492027012,
              -7.80995114728834
            ],
            [
              110.35869519725172,
              -7.809954050268164
            ],
            [
              110.358695657673,
              -7.809956930289117
            ],
            [
              110.35869629971684,
              -7.809959775985066
            ],
            [
              110.35869712084941,
              -7.809962576125344
            ],
            [
              110.35869811783012,
              -7.809965319659052
            ],
            [
              110.35869928672429,
              -7.809967995758766
            ],
            [
              110.35870062291883,
              -7.809970593863113
            ],
            [
              110.3587021211404,
              -7.809973103718581
            ],
            [
              110.35870377547623,
              -7.809975515419904
            ],
            [
              110.35870557939738,
              -7.809977819449211
            ],
            [
              110.3587075257846,
              -7.8099800067135225
            ],
            [
              110.35870960695637,
              -7.809982068580764
            ],
            [
              110.35871181469932,
              -7.809983996913651
            ],
            [
              110.35871414030045,
              -7.809985784101931
            ],
            [
              110.35871657458168,
              -7.809987423092406
            ],
            [
              110.358719107936,
              -7.80998890741673
            ],
            [
              110.35872173036545,
              -7.809990231216945
            ],
            [
              110.3587244315205,
              -7.809991389268634
            ],
            [
              110.3587272007409,
              -7.809992377001493
            ],
            [
              110.35873002709779,
              -7.809993190517384
            ],
            [
              110.35873289943689,
              -7.809993826605738
            ],
            [
              110.35873580642232,
              -7.809994282756196
            ],
            [
              110.35873873658159,
              -7.809994557168563
            ],
            [
              110.35874167835065,
              -7.809994648759849
            ],
            [
              110.35874462011972,
              -7.809994557168563
            ],
            [
              110.35874755027898,
              -7.809994282756196
            ],
            [
              110.35875045726442,
              -7.809993826605738
            ],
            [
              110.35875332960352,
              -7.809993190517384
            ],
            [
              110.3587561559604,
              -7.809992377001493
            ],
            [
              110.35875892518081,
              -7.809991389268634
            ],
            [
              110.35876162633585,
              -7.809990231216945
            ],
            [
              110.3587642487653,
              -7.80998890741673
            ],
            [
              110.35876678211962,
              -7.809987423092406
            ],
            [
              110.35876921640086,
              -7.809985784101931
            ],
            [
              110.35877154200199,
              -7.809983996913651
            ],
            [
              110.35877374974493,
              -7.809982068580764
            ],
            [
              110.35877583091673,
              -7.8099800067135225
            ],
            [
              110.35877777730394,
              -7.809977819449211
            ],
            [
              110.3587795812251,
              -7.809975515419904
            ],
            [
              110.3587812355609,
              -7.809973103718581
            ],
            [
              110.35878273378249,
              -7.809970593863113
            ],
            [
              110.358784069977,
              -7.809967995758766
            ],
            [
              110.35878523887119,
              -7.809965319659052
            ],
            [
              110.35878623585188,
              -7.809962576125344
            ],
            [
              110.35878705698447,
              -7.809959775985066
            ],
            [
              110.35878769902831,
              -7.809956930289117
            ],
            [
              110.35878815944959,
              -7.809954050268164
            ],
            [
              110.35878852888,
              -7.809948232806344
            ]
          ]
        ]
      }
    }
  ]
}